CCSDS_OMM_VERS = 2.0
CREATION_DATE  = 
ORIGINATOR     = 

OBJECT_NAME    = STARLINK-35729
OBJECT_ID      = 2025-280S
CENTER_NAME    = EARTH
REF_FRAME      = TEME
TIME_SYSTEM    = UTC
MEAN_ELEMENT_THEORY = SGP/SGP4

EPOCH          = 2025-12-12T06:00:00.999648
MEAN_MOTION    = 15.82144465
ECCENTRICITY   = .00035413
INCLINATION    = 69.9916
RA_OF_ASC_NODE = 200.2027
ARG_OF_PERICENTER = 277.2998
MEAN_ANOMALY   = 212.0595

EPHEMERIS_TYPE = 0
CLASSIFICATION_TYPE = U
NORAD_CAT_ID   = 66837
ELEMENT_SET_NO = 999
REV_AT_EPOCH   = 282
BSTAR          = -.10106269E-1
MEAN_MOTION_DOT = -.1826714E-1
MEAN_MOTION_DDOT = 0

CCSDS_OMM_VERS = 2.0
CREATION_DATE  = 
ORIGINATOR     = 

OBJECT_NAME    = STARLINK-35886
OBJECT_ID      = 2025-280T
CENTER_NAME    = EARTH
REF_FRAME      = TEME
TIME_SYSTEM    = UTC
MEAN_ELEMENT_THEORY = SGP/SGP4

EPOCH          = 2025-12-12T06:00:00.999648
MEAN_MOTION    = 15.82184802
ECCENTRICITY   = .00035507
INCLINATION    = 69.9915
RA_OF_ASC_NODE = 200.1981
ARG_OF_PERICENTER = 276.7648
MEAN_ANOMALY   = 216.3952

EPHEMERIS_TYPE = 0
CLASSIFICATION_TYPE = U
NORAD_CAT_ID   = 66838
ELEMENT_SET_NO = 999
REV_AT_EPOCH   = 282
BSTAR          = -.10166667E-1
MEAN_MOTION_DOT = -.1839371E-1
MEAN_MOTION_DDOT = 0

CCSDS_OMM_VERS = 2.0
CREATION_DATE  = 
ORIGINATOR     = 

OBJECT_NAME    = STARLINK-35717
OBJECT_ID      = 2025-280U
CENTER_NAME    = EARTH
REF_FRAME      = TEME
TIME_SYSTEM    = UTC
MEAN_ELEMENT_THEORY = SGP/SGP4

EPOCH          = 2025-12-12T06:00:00.999648
MEAN_MOTION    = 15.82168787
ECCENTRICITY   = .00036782
INCLINATION    = 69.9916
RA_OF_ASC_NODE = 200.2003
ARG_OF_PERICENTER = 274.1933
MEAN_ANOMALY   = 216.9882

EPHEMERIS_TYPE = 0
CLASSIFICATION_TYPE = U
NORAD_CAT_ID   = 66839
ELEMENT_SET_NO = 999
REV_AT_EPOCH   = 282
BSTAR          = -.10116538E-1
MEAN_MOTION_DOT = -.1830345E-1
MEAN_MOTION_DDOT = 0

CCSDS_OMM_VERS = 2.0
CREATION_DATE  = 
ORIGINATOR     = 

OBJECT_NAME    = STARLINK-35837
OBJECT_ID      = 2025-280V
CENTER_NAME    = EARTH
REF_FRAME      = TEME
TIME_SYSTEM    = UTC
MEAN_ELEMENT_THEORY = SGP/SGP4

EPOCH          = 2025-12-12T06:00:00.999648
MEAN_MOTION    = 15.82201270
ECCENTRICITY   = .00035703
INCLINATION    = 69.9917
RA_OF_ASC_NODE = 200.1961
ARG_OF_PERICENTER = 276.0554
MEAN_ANOMALY   = 219.0389

EPHEMERIS_TYPE = 0
CLASSIFICATION_TYPE = U
NORAD_CAT_ID   = 66840
ELEMENT_SET_NO = 999
REV_AT_EPOCH   = 282
BSTAR          = -.10196683E-1
MEAN_MOTION_DOT = -.1845413E-1
MEAN_MOTION_DDOT = 0

CCSDS_OMM_VERS = 2.0
CREATION_DATE  = 
ORIGINATOR     = 

OBJECT_NAME    = STARLINK-35715
OBJECT_ID      = 2025-280W
CENTER_NAME    = EARTH
REF_FRAME      = TEME
TIME_SYSTEM    = UTC
MEAN_ELEMENT_THEORY = SGP/SGP4

EPOCH          = 2025-12-12T06:00:00.999648
MEAN_MOTION    = 15.82213658
ECCENTRICITY   = .00036399
INCLINATION    = 69.9916
RA_OF_ASC_NODE = 200.1933
ARG_OF_PERICENTER = 274.6645
MEAN_ANOMALY   = 222.4173

EPHEMERIS_TYPE = 0
CLASSIFICATION_TYPE = U
NORAD_CAT_ID   = 66841
ELEMENT_SET_NO = 999
REV_AT_EPOCH   = 282
BSTAR          = -.10225216E-1
MEAN_MOTION_DOT = -.1850971E-1
MEAN_MOTION_DDOT = 0

CCSDS_OMM_VERS = 2.0
CREATION_DATE  = 
ORIGINATOR     = 

OBJECT_NAME    = STARLINK-35769
OBJECT_ID      = 2025-280X
CENTER_NAME    = EARTH
REF_FRAME      = TEME
TIME_SYSTEM    = UTC
MEAN_ELEMENT_THEORY = SGP/SGP4

EPOCH          = 2025-12-12T06:00:00.999648
MEAN_MOTION    = 15.82237259
ECCENTRICITY   = .00037475
INCLINATION    = 69.9916
RA_OF_ASC_NODE = 200.1913
ARG_OF_PERICENTER = 274.7997
MEAN_ANOMALY   = 224.1180

EPHEMERIS_TYPE = 0
CLASSIFICATION_TYPE = U
NORAD_CAT_ID   = 66842
ELEMENT_SET_NO = 999
REV_AT_EPOCH   = 282
BSTAR          = -.10235648E-1
MEAN_MOTION_DOT = -.1854563E-1
MEAN_MOTION_DDOT = 0

CCSDS_OMM_VERS = 2.0
CREATION_DATE  = 
ORIGINATOR     = 

OBJECT_NAME    = STARLINK-35997
OBJECT_ID      = 2025-280Y
CENTER_NAME    = EARTH
REF_FRAME      = TEME
TIME_SYSTEM    = UTC
MEAN_ELEMENT_THEORY = SGP/SGP4

EPOCH          = 2025-12-12T06:00:00.999648
MEAN_MOTION    = 15.82270602
ECCENTRICITY   = .00036149
INCLINATION    = 69.9910
RA_OF_ASC_NODE = 200.1864
ARG_OF_PERICENTER = 276.8940
MEAN_ANOMALY   = 225.9148

EPHEMERIS_TYPE = 0
CLASSIFICATION_TYPE = U
NORAD_CAT_ID   = 66843
ELEMENT_SET_NO = 999
REV_AT_EPOCH   = 282
BSTAR          = -.10295975E-1
MEAN_MOTION_DOT = -.1866539E-1
MEAN_MOTION_DDOT = 0

CCSDS_OMM_VERS = 2.0
CREATION_DATE  = 
ORIGINATOR     = 

OBJECT_NAME    = STARLINK-36073
OBJECT_ID      = 2025-280Z
CENTER_NAME    = EARTH
REF_FRAME      = TEME
TIME_SYSTEM    = UTC
MEAN_ELEMENT_THEORY = SGP/SGP4

EPOCH          = 2025-12-12T06:00:00.999648
MEAN_MOTION    = 15.82248367
ECCENTRICITY   = .00036327
INCLINATION    = 69.9913
RA_OF_ASC_NODE = 200.1887
ARG_OF_PERICENTER = 277.7697
MEAN_ANOMALY   = 223.2401

EPHEMERIS_TYPE = 0
CLASSIFICATION_TYPE = U
NORAD_CAT_ID   = 66844
ELEMENT_SET_NO = 999
REV_AT_EPOCH   = 282
BSTAR          = -.10318422E-1
MEAN_MOTION_DOT = -.1868408E-1
MEAN_MOTION_DDOT = 0

CCSDS_OMM_VERS = 2.0
CREATION_DATE  = 
ORIGINATOR     = 

OBJECT_NAME    = STARLINK-36068
OBJECT_ID      = 2025-280AA
CENTER_NAME    = EARTH
REF_FRAME      = TEME
TIME_SYSTEM    = UTC
MEAN_ELEMENT_THEORY = SGP/SGP4

EPOCH          = 2025-12-12T06:00:00.999648
MEAN_MOTION    = 15.82330461
ECCENTRICITY   = .00035895
INCLINATION    = 69.9910
RA_OF_ASC_NODE = 200.1797
ARG_OF_PERICENTER = 272.6049
MEAN_ANOMALY   = 235.8796

EPHEMERIS_TYPE = 0
CLASSIFICATION_TYPE = U
NORAD_CAT_ID   = 66845
ELEMENT_SET_NO = 999
REV_AT_EPOCH   = 282
BSTAR          = -.10352329E-1
MEAN_MOTION_DOT = -.1880078E-1
MEAN_MOTION_DDOT = 0

CCSDS_OMM_VERS = 2.0
CREATION_DATE  = 
ORIGINATOR     = 

OBJECT_NAME    = STARLINK-36055
OBJECT_ID      = 2025-280AB
CENTER_NAME    = EARTH
REF_FRAME      = TEME
TIME_SYSTEM    = UTC
MEAN_ELEMENT_THEORY = SGP/SGP4

EPOCH          = 2025-12-12T06:00:00.999648
MEAN_MOTION    = 15.82274196
ECCENTRICITY   = .00037133
INCLINATION    = 69.9912
RA_OF_ASC_NODE = 200.1837
ARG_OF_PERICENTER = 274.0895
MEAN_ANOMALY   = 230.8426

EPHEMERIS_TYPE = 0
CLASSIFICATION_TYPE = U
NORAD_CAT_ID   = 66846
ELEMENT_SET_NO = 999
REV_AT_EPOCH   = 282
BSTAR          = -.10356191E-1
MEAN_MOTION_DOT = -.1876488E-1
MEAN_MOTION_DDOT = 0

CCSDS_OMM_VERS = 2.0
CREATION_DATE  = 
ORIGINATOR     = 

OBJECT_NAME    = STARLINK-36061
OBJECT_ID      = 2025-280AC
CENTER_NAME    = EARTH
REF_FRAME      = TEME
TIME_SYSTEM    = UTC
MEAN_ELEMENT_THEORY = SGP/SGP4

EPOCH          = 2025-12-12T06:00:00.999648
MEAN_MOTION    = 15.82305246
ECCENTRICITY   = .00036704
INCLINATION    = 69.9911
RA_OF_ASC_NODE = 200.1821
ARG_OF_PERICENTER = 273.4865
MEAN_ANOMALY   = 233.1828

EPHEMERIS_TYPE = 0
CLASSIFICATION_TYPE = U
NORAD_CAT_ID   = 66847
ELEMENT_SET_NO = 999
REV_AT_EPOCH   = 277
BSTAR          = -.10348319E-1
MEAN_MOTION_DOT = -.1877589E-1
MEAN_MOTION_DDOT = 0

CCSDS_OMM_VERS = 2.0
CREATION_DATE  = 
ORIGINATOR     = 

OBJECT_NAME    = STARLINK-36091
OBJECT_ID      = 2025-281A
CENTER_NAME    = EARTH
REF_FRAME      = TEME
TIME_SYSTEM    = UTC
MEAN_ELEMENT_THEORY = SGP/SGP4

EPOCH          = 2025-12-12T06:00:00.999648
MEAN_MOTION    = 15.91865414
ECCENTRICITY   = .00016757
INCLINATION    = 43.0012
RA_OF_ASC_NODE = 125.4386
ARG_OF_PERICENTER = 268.5398
MEAN_ANOMALY   = 311.4013

EPHEMERIS_TYPE = 0
CLASSIFICATION_TYPE = U
NORAD_CAT_ID   = 66848
ELEMENT_SET_NO = 999
REV_AT_EPOCH   = 132
BSTAR          = -.33420994E-2
MEAN_MOTION_DOT = -.1141399E-1
MEAN_MOTION_DDOT = .38428166E-3

