STARLINK-35729          
1 66837U 25280S   25346.25001157 -.01826714  00000+0 -10106-1 0  9997
2 66837  69.9916 200.2027 0003541 277.2998 212.0595 15.82144465  2828
STARLINK-35886          
1 66838U 25280T   25346.25001157 -.01839371  00000+0 -10167-1 0  9998
2 66838  69.9915 200.1981 0003550 276.7648 216.3952 15.82184802  2825
STARLINK-35717          
1 66839U 25280U   25346.25001157 -.01830345  00000+0 -10117-1 0  9996
2 66839  69.9916 200.2003 0003678 274.1933 216.9882 15.82168787  2825
STARLINK-35837          
1 66840U 25280V   25346.25001157 -.01845413  00000+0 -10197-1 0  9998
2 66840  69.9917 200.1961 0003570 276.0554 219.0389 15.82201270  2822
STARLINK-35715          
1 66841U 25280W   25346.25001157 -.01850971  00000+0 -10225-1 0  9996
2 66841  69.9916 200.1933 0003639 274.6645 222.4173 15.82213658  2824
STARLINK-35769          
1 66842U 25280X   25346.25001157 -.01854563  00000+0 -10236-1 0  9990
2 66842  69.9916 200.1913 0003747 274.7997 224.1180 15.82237259  2824
STARLINK-35997          
1 66843U 25280Y   25346.25001157 -.01866539  00000+0 -10296-1 0  9993
2 66843  69.9910 200.1864 0003614 276.8940 225.9148 15.82270602  2820
STARLINK-36073          
1 66844U 25280Z   25346.25001157 -.01868408  00000+0 -10318-1 0  9996
2 66844  69.9913 200.1887 0003632 277.7697 223.2401 15.82248367  2824
STARLINK-36068          
1 66845U 25280AA  25346.25001157 -.01880078  00000+0 -10352-1 0  9992
2 66845  69.9910 200.1797 0003589 272.6049 235.8796 15.82330461  2821
STARLINK-36055          
1 66846U 25280AB  25346.25001157 -.01876488  00000+0 -10356-1 0  9997
2 66846  69.9912 200.1837 0003713 274.0895 230.8426 15.82274196  2820
STARLINK-36061          
1 66847U 25280AC  25346.25001157 -.01877589  00000+0 -10348-1 0  9992
2 66847  69.9911 200.1821 0003670 273.4865 233.1828 15.82305246  2772
STARLINK-36091          
1 66848U 25281A   25346.25001157 -.01141399  38428-3 -33421-2 0  9994
2 66848  43.0012 125.4386 0001675 268.5398 311.4013 15.91865414  1326
